{
"type": "FeatureCollection",
"name": "groundTruth",
"crs": { "type": "name", "properties": { "name": "urn:ogc:def:crs:OGC:1.3:CRS84" } },
"features": [
{ "type": "Feature", "properties": { "OBJECTID": 0, "FID_VEGAS_": 0, "Id": 0, "FID_Vegas": 0, "Name": "None", "AREA": 0.0, "Shape_Leng": 0.0, "Shape_Le_1": 0.0, "SISL": 0.0, "OBJECTID_1": 0, "Shape_Le_2": 81.876912, "Shape_Le_3": 0.001479, "Shape_Area": 0.0, "partialBuilding": 1.0, "partialDec": 0.88122701393722336 }, "geometry": { "type": "Polygon", "coordinates": [ [ [ -115.217022388999965, 36.220560328000033, 0.0 ], [ -115.217022388999965, 36.220514309000066, 0.0 ], [ -115.21700789099998, 36.220514309000066, 0.0 ], [ -115.21700789099998, 36.220470207000062, 0.0 ], [ -115.217024765999952, 36.220470207000062, 0.0 ], [ -115.21702595499994, 36.220470207000062, 0.0 ], [ -115.21702595499994, 36.220429940000031, 0.0 ], [ -115.21700789099998, 36.220429940000031, 0.0 ], [ -115.21700789099998, 36.220403095000052, 0.0 ], [ -115.21699981, 36.220403095000052, 0.0 ], [ -115.21699981, 36.220334066000078, 0.0 ], [ -115.21700789099998, 36.220334066000078, 0.0 ], [ -115.21700789099998, 36.220314891000044, 0.0 ], [ -115.217022388999965, 36.220314891000044, 0.0 ], [ -115.217022388999965, 36.220271748000073, 0.0 ], [ -115.21700789099998, 36.220271748000073, 0.0 ], [ -115.21700789099998, 36.220232699900002, 0.0 ], [ -115.217217048999942, 36.220232699900002, 0.0 ], [ -115.217217048999942, 36.220272707000049, 0.0 ], [ -115.21720183799999, 36.220272707000049, 0.0 ], [ -115.21720183799999, 36.220311056000071, 0.0 ], [ -115.217217048999942, 36.220311056000071, 0.0 ], [ -115.217217048999942, 36.220333107000044, 0.0 ], [ -115.217210155999965, 36.220333107000044, 0.0 ], [ -115.217210155999965, 36.220408847000044, 0.0 ], [ -115.217217048999942, 36.220408847000044, 0.0 ], [ -115.217217048999942, 36.220428023000068, 0.0 ], [ -115.217200648999949, 36.220428023000068, 0.0 ], [ -115.217200648999949, 36.220470207000062, 0.0 ], [ -115.217217048999942, 36.220470207000062, 0.0 ], [ -115.217217048999942, 36.220514309000066, 0.0 ], [ -115.217193517999988, 36.220514309000066, 0.0 ], [ -115.217193517999988, 36.220560328000033, 0.0 ], [ -115.21712340299996, 36.220560328000033, 0.0 ], [ -115.21712340299996, 36.220521020000035, 0.0 ], [ -115.217093692999981, 36.220521020000035, 0.0 ], [ -115.217093692999981, 36.220560328000033, 0.0 ], [ -115.217022388999965, 36.220560328000033, 0.0 ] ] ] } },
{ "type": "Feature", "properties": { "OBJECTID": 0, "FID_VEGAS_": 0, "Id": 0, "FID_Vegas": 0, "Name": "None", "AREA": 0.0, "Shape_Leng": 0.0, "Shape_Le_1": 0.0, "SISL": 0.0, "OBJECTID_1": 0, "Shape_Le_2": 81.876912, "Shape_Le_3": 0.001506, "Shape_Area": 0.0, "partialBuilding": 1.0, "partialDec": 0.00046488769719388106 }, "geometry": { "type": "MultiPolygon", "coordinates": [ [ [ [ -115.2173376, 36.220332366122314, 0.0 ], [ -115.217335425999977, 36.220327336000025, 0.0 ], [ -115.2173376, 36.220326724448093, 0.0 ], [ -115.2173376, 36.220332366122314, 0.0 ] ] ], [ [ [ -115.2173376, 36.220295392462447, 0.0 ], [ -115.21733302399997, 36.220284805000063, 0.0 ], [ -115.2173376, 36.22028351779678, 0.0 ], [ -115.2173376, 36.220295392462447, 0.0 ] ] ] ] } },
{ "type": "Feature", "properties": { "OBJECTID": 0, "FID_VEGAS_": 0, "Id": 0, "FID_Vegas": 0, "Name": "None", "AREA": 0.0, "Shape_Leng": 0.0, "Shape_Le_1": 0.0, "SISL": 0.0, "OBJECTID_1": 0, "Shape_Le_2": 81.876912, "Shape_Le_3": 0.001076, "Shape_Area": 0.0, "partialBuilding": 1.0, "partialDec": 0.99999115286101059 }, "geometry": { "type": "Polygon", "coordinates": [ [ [ -115.2162576, 36.220589901645077, 0.0 ], [ -115.216285370999969, 36.220620458000042, 0.0 ], [ -115.216297073999954, 36.22063333400007, 0.0 ], [ -115.216297333999989, 36.220633181000039, 0.0 ], [ -115.216298994999988, 36.220634947000065, 0.0 ], [ -115.2162576, 36.220659432863769, 0.0 ], [ -115.2162576, 36.220589901645077, 0.0 ] ] ] } },
{ "type": "Feature", "properties": { "OBJECTID": 0, "FID_VEGAS_": 0, "Id": 0, "FID_Vegas": 0, "Name": "None", "AREA": 0.0, "Shape_Leng": 0.0, "Shape_Le_1": 0.0, "SISL": 0.0, "OBJECTID_1": 0, "Shape_Le_2": 81.876912, "Shape_Le_3": 0.000599, "Shape_Area": 0.0, "partialBuilding": 1.0, "partialDec": 0.10589521943083642 }, "geometry": { "type": "Polygon", "coordinates": [ [ [ -115.21729786, 36.220817270000055, 0.0 ], [ -115.2173376, 36.220797099691403, 0.0 ], [ -115.2173376, 36.22085618518831, 0.0 ], [ -115.21733087199999, 36.22085960000004, 0.0 ], [ -115.21729786, 36.220817270000055, 0.0 ] ] ] } },
{ "type": "Feature", "properties": { "OBJECTID": 0, "FID_VEGAS_": 0, "Id": 0, "FID_Vegas": 0, "Name": "None", "AREA": 0.0, "Shape_Leng": 0.0, "Shape_Le_1": 0.0, "SISL": 0.0, "OBJECTID_1": 0, "Shape_Le_2": 81.876912, "Shape_Le_3": 0.001407, "Shape_Area": 0.0, "partialBuilding": 1.0, "partialDec": 0.90620791599152373 }, "geometry": { "type": "Polygon", "coordinates": [ [ [ -115.217108220999989, 36.22086799300007, 0.0 ], [ -115.217092504999982, 36.220847949000074, 0.0 ], [ -115.217079880999961, 36.220854392000035, 0.0 ], [ -115.2170455, 36.220810542000038, 0.0 ], [ -115.217072027999961, 36.220797005000065, 0.0 ], [ -115.217061605999959, 36.220783714000049, 0.0 ], [ -115.21703507899997, 36.220797251000079, 0.0 ], [ -115.216993631999969, 36.220744388000071, 0.0 ], [ -115.217010505999951, 36.220735778000062, 0.0 ], [ -115.21699172699999, 36.220711827000059, 0.0 ], [ -115.217055381999955, 36.220679344000075, 0.0 ], [ -115.217062794999947, 36.220688800000062, 0.0 ], [ -115.217086627999947, 36.220676637000054, 0.0 ], [ -115.217079214999956, 36.220667183000046, 0.0 ], [ -115.217129794999948, 36.220641372000046, 0.0 ], [ -115.217137663999949, 36.220651409000027, 0.0 ], [ -115.217162258999963, 36.220638858000029, 0.0 ], [ -115.21715439, 36.220628822000037, 0.0 ], [ -115.21719925299999, 36.220605928000055, 0.0 ], [ -115.21720183799999, 36.220609224000043, 0.0 ], [ -115.217212374999974, 36.220622664000075, 0.0 ], [ -115.217261257999951, 36.220597719000068, 0.0 ], [ -115.21725072, 36.220584280000026, 0.0 ], [ -115.21728978, 36.22056434700005, 0.0 ], [ -115.217301662999944, 36.220579503000067, 0.0 ], [ -115.217324922999978, 36.220567634000076, 0.0 ], [ -115.2173376, 36.220583802487006, 0.0 ], [ -115.2173376, 36.220743989023532, 0.0 ], [ -115.217312357999958, 36.220756870000059, 0.0 ], [ -115.217316252999979, 36.220761836000065, 0.0 ], [ -115.217270800999984, 36.220785030000059, 0.0 ], [ -115.217257465999978, 36.220768022000073, 0.0 ], [ -115.217239865999943, 36.22077700300008, 0.0 ], [ -115.217253201999938, 36.220794011000066, 0.0 ], [ -115.21720040699995, 36.220820952000054, 0.0 ], [ -115.217193682999948, 36.220812375000037, 0.0 ], [ -115.217170938999971, 36.220823981000024, 0.0 ], [ -115.217177662999973, 36.220832557000051, 0.0 ], [ -115.217108220999989, 36.22086799300007, 0.0 ] ] ] } },
{ "type": "Feature", "properties": { "OBJECTID": 0, "FID_VEGAS_": 0, "Id": 0, "FID_Vegas": 0, "Name": "None", "AREA": 0.0, "Shape_Leng": 0.0, "Shape_Le_1": 0.0, "SISL": 0.0, "OBJECTID_1": 0, "Shape_Le_2": 81.876912, "Shape_Le_3": 0.001024, "Shape_Area": 0.0, "partialBuilding": 1.0, "partialDec": 0.99999893824926012 }, "geometry": { "type": "Polygon", "coordinates": [ [ [ -115.2162576, 36.220760153269168, 0.0 ], [ -115.216413342999942, 36.220667437000031, 0.0 ], [ -115.2164445, 36.220701500000075, 0.0 ], [ -115.2162576, 36.220812764523721, 0.0 ], [ -115.2162576, 36.220760153269168, 0.0 ] ] ] } },
{ "type": "Feature", "properties": { "OBJECTID": 0, "FID_VEGAS_": 0, "Id": 0, "FID_Vegas": 0, "Name": "None", "AREA": 0.0, "Shape_Leng": 0.0, "Shape_Le_1": 0.0, "SISL": 0.0, "OBJECTID_1": 0, "Shape_Le_2": 81.876912, "Shape_Le_3": 0.000551, "Shape_Area": 0.0, "partialBuilding": 0.0, "partialDec": 1.0 }, "geometry": { "type": "Polygon", "coordinates": [ [ [ -115.217071113999964, 36.22094037200003, 0.0 ], [ -115.21726731699999, 36.220833675000051, 0.0 ], [ -115.217300712999986, 36.220873643000061, 0.0 ], [ -115.217104508999967, 36.22098034000004, 0.0 ], [ -115.217071113999964, 36.22094037200003, 0.0 ] ] ] } },
{ "type": "Feature", "properties": { "OBJECTID": 0, "FID_VEGAS_": 0, "Id": 0, "FID_Vegas": 0, "Name": "None", "AREA": 0.0, "Shape_Leng": 0.0, "Shape_Le_1": 0.0, "SISL": 0.0, "OBJECTID_1": 0, "Shape_Le_2": 81.876912, "Shape_Le_3": 0.00115, "Shape_Area": 0.0, "partialBuilding": 1.0, "partialDec": 0.20619854410981533 }, "geometry": { "type": "Polygon", "coordinates": [ [ [ -115.21722513, 36.220982939000066, 0.0 ], [ -115.2173376, 36.220924969581759, 0.0 ], [ -115.2173376, 36.220986328388669, 0.0 ], [ -115.217259636999984, 36.221026512000037, 0.0 ], [ -115.21722513, 36.220982939000066, 0.0 ] ] ] } },
{ "type": "Feature", "properties": { "OBJECTID": 0, "FID_VEGAS_": 0, "Id": 0, "FID_Vegas": 0, "Name": "None", "AREA": 0.0, "Shape_Leng": 0.0, "Shape_Le_1": 0.0, "SISL": 0.0, "OBJECTID_1": 0, "Shape_Le_2": 81.876912, "Shape_Le_3": 0.001507, "Shape_Area": 0.0, "partialBuilding": 1.0, "partialDec": 0.99999935811263163 }, "geometry": { "type": "Polygon", "coordinates": [ [ [ -115.2162576, 36.220913314577942, 0.0 ], [ -115.216261671999973, 36.22091084200008, 0.0 ], [ -115.216288855999949, 36.220894335000025, 0.0 ], [ -115.216627311999957, 36.220895084000063, 0.0 ], [ -115.216626868999981, 36.22102551200004, 0.0 ], [ -115.216327753999963, 36.221024851000038, 0.0 ], [ -115.216297030999954, 36.221044543000062, 0.0 ], [ -115.216284220999967, 36.221031537000044, 0.0 ], [ -115.216271062999965, 36.221039527000073, 0.0 ], [ -115.21628822699995, 36.221057300000041, 0.0 ], [ -115.216278573999944, 36.221074352000073, 0.0 ], [ -115.2162576, 36.221088649220675, 0.0 ], [ -115.2162576, 36.220913314577942, 0.0 ] ] ] } },
{ "type": "Feature", "properties": { "OBJECTID": 0, "FID_VEGAS_": 0, "Id": 0, "FID_Vegas": 0, "Name": "None", "AREA": 0.0, "Shape_Leng": 0.0, "Shape_Le_1": 0.0, "SISL": 0.0, "OBJECTID_1": 0, "Shape_Le_2": 81.876912, "Shape_Le_3": 0.000659, "Shape_Area": 0.0, "partialBuilding": 1.0, "partialDec": 0.99999983652470925 }, "geometry": { "type": "Polygon", "coordinates": [ [ [ -115.216277803402349, 36.221312699899997, 0.0 ], [ -115.21647789799999, 36.221192632000054, 0.0 ], [ -115.216527961999986, 36.221246932000042, 0.0 ], [ -115.216418359338022, 36.221312699899997, 0.0 ], [ -115.216277803402349, 36.221312699899997, 0.0 ] ] ] } },
{ "type": "Feature", "properties": { "OBJECTID": 0, "FID_VEGAS_": 0, "Id": 0, "FID_Vegas": 0, "Name": "None", "AREA": 0.0, "Shape_Leng": 0.0, "Shape_Le_1": 0.0, "SISL": 0.0, "OBJECTID_1": 0, "Shape_Le_2": 81.876912, "Shape_Le_3": 0.001041, "Shape_Area": 0.0, "partialBuilding": 1.0, "partialDec": 0.68609645671701402 }, "geometry": { "type": "Polygon", "coordinates": [ [ [ -115.217146290999949, 36.221259055000075, 0.0 ], [ -115.21733534, 36.221162875000061, 0.0 ], [ -115.2173376, 36.221165766140956, 0.0 ], [ -115.2173376, 36.221312699899997, 0.0 ], [ -115.217188225847252, 36.221312699899997, 0.0 ], [ -115.217146290999949, 36.221259055000075, 0.0 ] ] ] } }
]
}
